IRIDIUM 126             
1 42809U 17039G   23245.73758291  .00000101  00000+0  29070-4 0  9994
2 42809  86.3932  59.2578 0002300  95.0430 265.1029 14.34217345323971
IRIDIUM 124             
1 42810U 17039H   23245.79033221  .00000662  00000+0  19082-3 0  9994
2 42810  86.4552 355.9993 0002159  89.7343 270.4105 14.43273245328222
IRIDIUM 128             
1 42811U 17039J   23245.86784864  .00000427  00000+0  14546-3 0  9998
2 42811  86.3914  90.7573 0002319  88.8364 271.3098 14.34213768324022
IRIDIUM 121             
1 42812U 17039K   23245.75660607  .00000095  00000+0  27006-4 0  9992
2 42812  86.3932  59.2711 0002172  91.8117 268.3328 14.34216078323853
IRIDIUM 133             
1 42955U 17061A   23245.82980900  .00000317  00000+0  10628-3 0  9992
2 42955  86.3917  90.8663 0002277  92.4415 267.7042 14.34219008308816
IRIDIUM 100             
1 42956U 17061B   23245.82345748  .00000302  00000+0  10067-3 0  9999
2 42956  86.3916  90.8115 0002254  89.9322 270.2132 14.34219840308814
IRIDIUM 122             
1 42957U 17061C   23244.67544819  .00000280  00000+0  92765-4 0  9993
2 42957  86.3918  91.2898 0002370  88.9017 271.2451 14.34222636308653
IRIDIUM 129             
1 42958U 17061D   23245.81711606  .00000375  00000+0  12677-3 0  9999
2 42958  86.3917  90.8682 0002295  89.8520 270.2938 14.34216695308831
